[{"OBJECT_NAME":"STARLINK-4703","OBJECT_ID":"2022-114AP","EPOCH":"2026-03-09T22:39:41.992128","MEAN_MOTION":15.0884087,"ECCENTRICITY":0.00014238,"INCLINATION":53.2183,"RA_OF_ASC_NODE":292.7235,"ARG_OF_PERICENTER":81.7686,"MEAN_ANOMALY":278.3467,"EPHEMERIS_TYPE":0,"CLASSIFICATION_TYPE":"U","NORAD_CAT_ID":53855,"ELEMENT_SET_NO":999,"REV_AT_EPOCH":19301,"BSTAR":8.123266e-6,"MEAN_MOTION_DOT":-1.59e-6,"MEAN_MOTION_DDOT":0},{"OBJECT_NAME":"SEDNA-2","OBJECT_ID":"2025-009DQ","EPOCH":"2026-03-09T19:10:28.282944","MEAN_MOTION":15.10492622,"ECCENTRICITY":0.0010309,"INCLINATION":97.4615,"RA_OF_ASC_NODE":144.8075,"ARG_OF_PERICENTER":53.026,"MEAN_ANOMALY":307.1912,"EPHEMERIS_TYPE":0,"CLASSIFICATION_TYPE":"U","NORAD_CAT_ID":63153,"ELEMENT_SET_NO":999,"REV_AT_EPOCH":6311,"BSTAR":0.00049393403,"MEAN_MOTION_DOT":8.085e-5,"MEAN_MOTION_DDOT":0}]
